GLOBALSTAR M068         
1 32266U 07048D   24252.86346885 -.00000017  00000+0  48314-3 0  9992
2 32266  51.9879  79.8091 0000386 167.2576 301.7881 12.62799803782018
GLOBALSTAR M079         
1 37188U 10054A   24252.78129334 -.00000079  00000+0  13716-3 0  9996
2 37188  52.0027 276.4346 0000475  68.3096 103.0495 12.62263852640914
GLOBALSTAR M074         
1 37189U 10054B   24252.80748424 -.00000082  00000+0  12291-3 0  9998
2 37189  52.0005 275.7185 0000395 103.2781  68.5532 12.62288860641526
GLOBALSTAR M076         
1 37190U 10054C   24252.43163116 -.00000061  00000+0  23847-3 0  9994
2 37190  52.0020 277.0134 0000766  97.0437  42.6766 12.62256795641191
GLOBALSTAR M077         
1 37191U 10054D   24252.66263118 -.00000081  00000+0  12753-3 0  9999
2 37191  52.0049 233.0804 0000295  74.6493  96.8301 12.62263483641591
GLOBALSTAR M075         
1 37192U 10054E   24252.68873352 -.00000069  00000+0  19589-3 0  9999
2 37192  51.9962 318.6423 0000467  98.9538  71.2154 12.62264231640450
GLOBALSTAR M073         
1 37193U 10054F   24252.69017171 -.00000084  00000+0  10868-3 0  9998
2 37193  52.0039 232.2395 0000465  76.5414  99.9149 12.62269316642283
GLOBALSTAR M083         
1 37739U 11033A   24252.75085002 -.00000047  00000+0  31813-3 0  9999
2 37739  51.9849 181.1689 0000566  40.9380 352.4256 12.62264176611318
GLOBALSTAR M088         
1 37740U 11033B   24252.79884898 -.00000087  00000+0  92213-4 0  9991
2 37740  51.9727  86.7496 0000817  66.4096 306.0006 12.62267391606861
GLOBALSTAR M091         
1 37741U 11033C   24252.73357781 -.00000093  00000+0  59120-4 0  9999
2 37741  52.0008  50.0018 0000721  65.1534 308.5969 12.62266718607641
GLOBALSTAR M085         
1 37742U 11033D   24252.56151640 -.00000071  00000+0  18277-3 0  9990
2 37742  51.9902   1.8135 0000548  80.7172 292.1106 12.62265344608629
GLOBALSTAR M081         
1 37743U 11033E   24252.77990480 -.00000078  00000+0  14513-3 0  9993
2 37743  51.9988   3.7613 0000814  79.0502  86.5237 12.62268899608303
GLOBALSTAR M089         
1 37744U 11033F   24252.46964142 -.00000060  00000+0  24487-3 0  9998
2 37744  51.9945 318.9922 0000812 113.9289 259.4587 12.62268276609117
GLOBALSTAR M084         
1 38040U 11080A   24252.97177944 -.00000053  00000+0  28129-3 0  9991
2 38040  51.9997 184.5966 0000551  91.9419 345.3418 12.62266945587157
GLOBALSTAR M080         
1 38041U 11080B   24252.85290855 -.00000062  00000+0  23170-3 0  9997
2 38041  52.0051 186.4667 0000830  86.9635 289.8463 12.62265171587268
GLOBALSTAR M082         
1 38042U 11080C   24252.94479456 -.00000060  00000+0  24507-3 0  9997
2 38042  52.0071 141.6045 0000512  14.8599 359.7748 12.62266184587987
GLOBALSTAR M092         
1 38043U 11080D   24252.91894456 -.00000078  00000+0  14308-3 0  9993
2 38043  52.0063 232.0437 0000258  93.9719 283.3178 12.62265776586432
GLOBALSTAR M090         
1 38044U 11080E   24252.97110852 -.00000063  00000+0  22944-3 0  9990
2 38044  51.9878 135.6950 0000603  45.1718 329.0427 12.62267306588107
GLOBALSTAR M086         
1 38045U 11080F   24252.85306590 -.00000052  00000+0  28959-3 0  9994
2 38045  51.9892 136.5826 0001614  60.3192  17.9110 12.62266862588034
GLOBALSTAR M097         
1 39072U 13005A   24252.70434723 -.00000101  00000+0  17003-4 0  9992
2 39072  52.0055  51.2967 0000865  70.1868 289.9092 12.62270305535267
GLOBALSTAR M093         
1 39073U 13005B   24252.67741544 -.00000084  00000+0  11159-3 0  9996
2 39073  51.9824  45.1285 0000824  67.4067 292.6887 12.62263829535211
GLOBALSTAR M094         
1 39074U 13005C   24252.91507923 -.00000055  00000+0  27178-3 0  9991
2 39074  51.9978 318.5107 0000506  73.6702 286.4220 12.62267895536854
GLOBALSTAR M096         
1 39075U 13005D   24252.84912497 -.00000081  00000+0  12628-3 0  9993
2 39075  52.0103   7.0035 0000648  69.3897 290.7039 12.62269513535765
GLOBALSTAR M078         
1 39076U 13005E   24252.90173661 -.00000096  00000+0  42460-4 0  9997
2 39076  51.9862  91.7344 0000349 316.6621  43.4218 12.62274541534397
GLOBALSTAR M095         
1 39077U 13005F   24252.92825786 -.00000086  00000+0  10110-3 0  9997
2 39077  51.9790  88.9909 0000691  28.5970 331.4934 12.62264593534255
GLOBALSTAR M087         
1 52888U 22064A   24252.57388153 -.00000067  00000+0  11598-3 0  9990
2 52888  51.9749 277.6156 0009179 214.0302 146.0011 13.37584747108685
